NORAD_CAT_ID,OBJECT_NAME,OBJECT_TYPE,EPOCH,MEAN_MOTION,ECCENTRICITY,INCLINATION,RA_OF_ASC_NODE,ARG_OF_PERICENTER,MEAN_ANOMALY,BSTAR,MEAN_MOTION_DOT,MEAN_MOTION_DDOT,TLE_LINE0,TLE_LINE1,TLE_LINE2,SEMIMAJOR_AXIS,PERIOD,APOGEE,PERIGEE,DECAYED
53016.0,STARLINK-4283,PAYLOAD,2022-08-09 14:00:01,15.73132745,0.0002352,53.2169,216.0829,19.6722,185.1692,-0.00013737,-0.00019802,0.0,0 STARLINK-4283,1 53016U 22076AG  22221.58334491 -.00019802  00000-0 -13737-3 0  9994,2 53016  53.2169 216.0829 0002352  19.6722 185.1692 15.73132745  1304,6728.087,91.537,351.534,348.369,0.0
53016.0,STARLINK-4283,PAYLOAD,2022-08-09 20:00:01,15.73092191,0.0002139,53.2172,214.8444,20.2039,161.2706,0.00066873,0.00093855,0.0,0 STARLINK-4283,1 53016U 22076AG  22221.83334491  .00093855  00000-0  66873-3 0  9999,2 53016  53.2172 214.8444 0002139  20.2039 161.2706 15.73092191  5731,6728.203,91.539,351.50699999999995,348.62800000000016,0.0
53016.0,STARLINK-4283,PAYLOAD,2022-08-09 22:00:00,15.73105224,0.0002143,53.2172,214.4318,22.2047,271.4739,0.00066773,0.00093765,0.0,0 STARLINK-4283,1 53016U 22076AG  22221.91667824  .00093765  00000-0  66773-3 0  9996,2 53016  53.2172 214.4318 0002143  22.2047 271.4739 15.73105224  1304,6728.165,91.539,351.472,348.589,0.0
53016.0,STARLINK-4283,PAYLOAD,2022-08-10 14:00:01,15.73205558,0.0002416,53.2172,211.1346,22.1838,89.2366,7.1669e-05,9.451e-05,0.0,0 STARLINK-4283,1 53016U 22076AG  22222.58334491  .00009451  00000-0  71669-4 0  9991,2 53016  53.2172 211.1346 0002416  22.1838  89.2366 15.73205558  5855,6727.879,91.533,351.37,348.119,0.0
53016.0,STARLINK-4283,PAYLOAD,2022-08-10 22:00:00,15.73230828,0.0002241,53.2173,209.4838,27.8487,172.5093,-0.00024507,-0.00034922,0.0,0 STARLINK-4283,1 53016U 22076AG  22222.91667824 -.00034922  00000-0 -24507-3 0  9998,2 53016  53.2173 209.4838 0002241  27.8487 172.5093 15.73230828  1307,6727.807,91.531,351.18,348.165,0.0
53016.0,STARLINK-4283,PAYLOAD,2022-08-11 04:00:00,15.73216972,0.0002405,53.2172,208.2482,26.92,150.1442,-0.00073195,-0.00102198,0.0,0 STARLINK-4283,1 53016U 22076AG  22223.16667824 -.00102198  00000-0 -73195-3 0  9994,2 53016  53.2172 208.2482 0002405  26.9200 150.1442 15.73216972  5941,6727.847,91.532,351.33,348.094,0.0
53016.0,STARLINK-4283,PAYLOAD,2022-08-11 14:00:01,15.73167396,0.0002376,53.217,206.1865,24.11,354.0746,6.5625e-05,8.586e-05,0.0,0 STARLINK-4283,1 53016U 22076AG  22223.58334491  .00008586  00000-0  65625-4 0  9995,2 53016  53.2170 206.1865 0002376  24.1100 354.0746 15.73167396  1300,6727.988,91.535,351.452,348.255,0.0
53016.0,STARLINK-4283,PAYLOAD,2022-08-11 20:00:01,15.73142935,0.0002207,53.2173,204.948,27.2221,327.6335,0.00062754,0.00088168,0.0,0 STARLINK-4283,1 53016U 22076AG  22223.83334491  .00088168  00000-0  62754-3 0  9996,2 53016  53.2173 204.9480 0002207  27.2221 327.6335 15.73142935  6052,6728.058000000001,91.537,351.408,348.43800000000016,0.0
53016.0,STARLINK-4283,PAYLOAD,2022-08-12 14:00:01,15.73311452,0.0002305,53.2177,201.2378,24.3038,260.6693,-0.00060165,-0.00084628,0.0,0 STARLINK-4283,1 53016U 22076AG  22224.58334491 -.00084628  00000-0 -60165-3 0  9992,2 53016  53.2177 201.2378 0002305  24.3038 260.6693 15.73311452  1303,6727.5769999999975,91.527,350.99300000000005,347.892,0.0
53016.0,STARLINK-4283,PAYLOAD,2022-08-12 20:00:01,15.7322357,0.0002115,53.2178,199.9994,24.0266,237.7889,0.00033703,0.00046995,0.0,0 STARLINK-4283,1 53016U 22076AG  22224.83335648  .00046995  00000-0  33703-3 0  9996,2 53016  53.2178 199.9994 0002115  24.0266 237.7889 15.73223570  6210,6727.828,91.532,351.116,348.27,0.0
53016.0,STARLINK-4283,PAYLOAD,2022-08-12 22:00:01,15.73248456,0.0002106,53.218,199.5871,24.5091,349.5431,3.14e-06,-1.8e-06,0.0,0 STARLINK-4283,1 53016U 22076AG  22224.91668981 -.00000180  00000-0  31400-5 0  9995,2 53016  53.2180 199.5871 0002106  24.5091 349.5431 15.73248456  1304,6727.757,91.53,351.039,348.205,0.0
53016.0,STARLINK-4283,PAYLOAD,2022-08-13 04:00:00,15.73264052,0.0002261,53.2177,198.3517,21.3962,329.3199,-0.0010119,-0.00140691,0.0,0 STARLINK-4283,1 53016U 22076AG  22225.16667824 -.00140691  00000-0 -10119-2 0  9992,2 53016  53.2177 198.3517 0002261  21.3962 329.3199 15.73264052  6265,6727.7130000000025,91.529,351.099,348.056,0.0
53016.0,STARLINK-4283,PAYLOAD,2022-08-13 14:00:01,15.73171682,0.0002268,53.2177,196.2894,24.1248,167.75099999999995,-1.254e-05,-2.379e-05,0.0,0 STARLINK-4283,1 53016U 22076AG  22225.58334491 -.00002379  00000-0 -12540-4 0  9991,2 53016  53.2177 196.2894 0002268  24.1248 167.7510 15.73171682  1302,6727.976,91.535,351.367,348.315,0.0
53016.0,STARLINK-4283,PAYLOAD,2022-08-13 22:00:00,15.73198399,0.000206,53.2182,194.6389,26.4164,254.3459,1.6599e-05,1.709e-05,0.0,0 STARLINK-4283,1 53016U 22076AG  22225.91667824  .00001709  00000-0  16599-4 0  9999,2 53016  53.2182 194.6389 0002060  26.4164 254.3459 15.73198399  1300,6727.9,91.533,351.151,348.379,0.0
53016.0,STARLINK-4283,PAYLOAD,2022-08-14 14:00:01,15.73209762,0.0002174,53.2183,191.3412,20.8524,77.7502,0.00010953,0.00014785,0.0,0 STARLINK-4283,1 53016U 22076AG  22226.58334491  .00014785  00000-0  10953-3 0  9999,2 53016  53.2183 191.3412 0002174  20.8524  77.7502 15.73209762  1309,6727.8669999999975,91.533,351.195,348.27,0.0
53016.0,STARLINK-4283,PAYLOAD,2022-08-14 20:00:01,15.73202541,0.0002032,53.2183,190.1032,23.3878,51.9167,0.00050616,0.00071029,0.0,0 STARLINK-4283,1 53016U 22076AG  22226.83334491  .00071029  00000-0  50616-3 0  9991,2 53016  53.2183 190.1032 0002032  23.3878  51.9167 15.73202541  6525,6727.888000000001,91.533,351.12,348.386,0.0
53016.0,STARLINK-4283,PAYLOAD,2022-08-14 22:00:00,15.73243588,0.0001989,53.2184,189.6912,24.3895,163.1409,4.0953e-05,5.141e-05,0.0,0 STARLINK-4283,1 53016U 22076AG  22226.91667824  .00005141  00000-0  40953-4 0  9995,2 53016  53.2184 189.6912 0001989  24.3895 163.1409 15.73243588  1308,6727.771,91.531,350.974,348.298,0.0
53016.0,STARLINK-4283,PAYLOAD,2022-08-15 04:00:00,15.7323795,0.0002234,53.218,188.4557,20.0186,144.2464,-0.00042728,-0.00060264,0.0,0 STARLINK-4283,1 53016U 22076AG  22227.16667824 -.00060264  00000-0 -42728-3 0  9993,2 53016  53.2180 188.4557 0002234  20.0186 144.2464 15.73237950  6577,6727.7869999999975,91.531,351.155,348.149,0.0
53016.0,STARLINK-4283,PAYLOAD,2022-08-15 14:00:01,15.73191837,0.0002114,53.2179,186.3931,23.1502,342.3007,-0.00018385,-0.00026336,0.0,0 STARLINK-4283,1 53016U 22076AG  22227.58334491 -.00026336  00000-0 -18385-3 0  9994,2 53016  53.2179 186.3931 0002114  23.1502 342.3007 15.73191837  1304,6727.918000000002,91.534,351.206,348.361,0.0
53016.0,STARLINK-4283,PAYLOAD,2022-08-15 20:00:01,15.73158874,0.0002041,53.218,185.155,27.8155,314.3179,0.00057903,0.00081292,0.0,0 STARLINK-4283,1 53016U 22076AG  22227.83334491  .00081292  00000-0  57903-3 0  9991,2 53016  53.2180 185.1550 0002041  27.8155 314.3179 15.73158874  6683,6728.012,91.536,351.251,348.504,0.0
53016.0,STARLINK-4283,PAYLOAD,2022-08-15 22:00:00,15.7318791,0.0002056999999999,53.2182,184.743,28.9621,65.3884,0.00032831,0.00045685,0.0,0 STARLINK-4283,1 53016U 22076AG  22227.91667824  .00045685  00000-0  32831-3 0  9998,2 53016  53.2182 184.7430 0002057  28.9621  65.3884 15.73187910  1307,6727.93,91.534,351.17900000000014,348.411,0.0
53016.0,STARLINK-4283,PAYLOAD,2022-08-16 12:00:00,15.73270318,0.0002191999999999,53.218,181.8578,21.5664,138.4298,-0.00071281,-0.00099793,0.0,0 STARLINK-4283,1 53016U 22076AG  22228.50001157 -.00099793  00000-0 -71281-3 0  9998,2 53016  53.2180 181.8578 0002192  21.5664 138.4298 15.73270318  6785,6727.695,91.529,351.034,348.085,0.0
53016.0,STARLINK-4283,PAYLOAD,2022-08-16 14:00:01,15.73239322,0.00021,53.2181,181.4448,22.4003,249.8499,-0.00040283,-0.00056875,0.0,0 STARLINK-4283,1 53016U 22076AG  22228.58334491 -.00056875  00000-0 -40283-3 0  9998,2 53016  53.2181 181.4448 0002100  22.4003 249.8499 15.73239322  1307,6727.783,91.531,351.061,348.235,0.0
53016.0,STARLINK-4283,PAYLOAD,2022-08-16 20:00:01,15.73203897,0.0001913,53.2181,180.207,21.6081,227.3571,0.00037224,0.00051955,0.0,0 STARLINK-4283,1 53016U 22076AG  22228.83334491  .00051955  00000-0  37224-3 0  9999,2 53016  53.2181 180.2070 0001913  21.6081 227.3571 15.73203897  6847,6727.884,91.533,351.036,348.462,0.0
53016.0,STARLINK-4283,PAYLOAD,2022-08-16 22:00:00,15.73250299,0.0001956999999999,53.2181,179.7951,20.9206,340.2689,-0.00027821,-0.0003956999999999,0.0,0 STARLINK-4283,1 53016U 22076AG  22228.91667824 -.00039570  00000-0 -27821-3 0  9990,2 53016  53.2181 179.7951 0001957  20.9206 340.2689 15.73250299  1317,6727.752,91.53,350.93300000000005,348.3,0.0
53016.0,STARLINK-4283,PAYLOAD,2022-08-17 06:00:02,15.73189763,0.000218,53.2176,178.1476,18.5016,71.7312,6.3456e-06,2.69e-06,0.0,0 STARLINK-4283,1 53016U 22076AG  22229.25002315  .00000269  00000-0  63456-5 0  9993,2 53016  53.2176 178.1476 0002180  18.5016  71.7312 15.73189763  6903,6727.924,91.534,351.256,348.3230000000001,0.0
53016.0,STARLINK-4283,PAYLOAD,2022-08-17 12:00:00,15.73299882,0.0002129,53.2169,176.9006,15.5964,51.2534,-0.0023011,-0.00313228,0.0,0 STARLINK-4283,1 53016U 22076AG  22229.50001157 -.00313228  00000-0 -23011-2 0  9998,2 53016  53.2169 176.9006 0002129  15.5964  51.2534 15.73299882  6949,6727.61,91.527,350.908,348.043,0.0
53016.0,STARLINK-4283,PAYLOAD,2022-08-17 14:00:01,15.73186571,0.0002162,53.2173,176.486,17.3175,161.7958,-0.00097958,-0.00135842,0.0,0 STARLINK-4283,1 53016U 22076AG  22229.58334491 -.00135842  00000-0 -97958-3 0  9992,2 53016  53.2173 176.4860 0002162  17.3175 161.7958 15.73186571  1300,6727.933000000001,91.534,351.25300000000016,348.344,0.0
53016.0,STARLINK-4283,PAYLOAD,2022-08-17 16:00:00,15.73031639,0.0002109999999999,53.2173,176.0716,22.8304,268.5475,0.0012289,0.00174215,0.0,0 STARLINK-4283,1 53016U 22076AG  22229.66667824  .00174215  00000-0  12289-2 0  9998,2 53016  53.2173 176.0716 0002110  22.8304 268.5475 15.73031639  6976,6728.375,91.543,351.66,348.821,0.0
